IRIDIUM 144             
1 43249U 18030A   23324.93705278  .00000167  00000+0  52539-4 0  9990
2 43249  86.3941 322.9653 0002327  90.6863 269.4599 14.34215813295519
IRIDIUM 149             
1 43250U 18030B   23325.08292534  .00000176  00000+0  55715-4 0  9994
2 43250  86.3939 322.8815 0002500  90.0689 270.0793 14.34218354295551
IRIDIUM 157             
1 43251U 18030C   23324.75309190  .00000176  00000+0  55633-4 0  9994
2 43251  86.3942 323.0520 0001992  90.1982 269.9442 14.34218874295480
IRIDIUM 140             
1 43252U 18030D   23324.70236419  .00000184  00000+0  58559-4 0  9992
2 43252  86.3943 323.0880 0002438  97.3031 262.8442 14.34217551295530
IRIDIUM 145             
1 43253U 18030E   23324.75945412  .00000169  00000+0  53239-4 0  9991
2 43253  86.3942 323.0384 0002571  90.0697 270.0794 14.34217757295477
IRIDIUM 146             
1 43254U 18030F   23324.94971502  .00000173  00000+0  54601-4 0  9991
2 43254  86.3941 322.9741 0002513  87.9532 272.1951 14.34218688295518
IRIDIUM 148             
1 43255U 18030G   23324.91802670  .00000170  00000+0  53639-4 0  9995
2 43255  86.3943 323.0166 0002395  83.3211 276.8257 14.34215798295548
IRIDIUM 142             
1 43256U 18030H   23325.09561044  .00000150  00000+0  46485-4 0  9992
2 43256  86.3939 322.8653 0002329  85.5087 274.6375 14.34218175295532
